TISAT 1                 
1 36799U 10035E   26068.75703561  .00024554  00000+0  91005-3 0  9996
2 36799  98.0645   6.8512 0001343 159.3030 200.8262 15.27628633852505
STARLINK-33959          
1 63817U 25092P   26068.32390745  .00029843  00000+0  10891-2 0  9994
2 63817  42.9947 174.1840 0002351 286.5649  73.4944 15.27594780 48616
